JILIN-1 GAOFEN 3A       
1 44312U 19032C   26192.13192131  .00005510  00000+0  17826-3 0  9997
2 44312  44.9736 225.1029 0004680  74.5672 285.5729 15.33139854391518
JILIN-1 GAOFEN 2A       
1 44777U 19075A   26192.18246514  .00008866  00000+0  22467-3 0  9993
2 44777  97.4964 276.5427 0005571  10.3816 349.7543 15.39945435368572
JILIN-1 GAOFEN 2B       
1 44836U 19086A   26192.16242722  .00003500  00000+0  16086-3 0  9996
2 44836  97.4877 264.0055 0012908 230.8693 129.1395 15.20970931364136
JILIN-1 GAOFEN 3E       
1 46457U 20065D   26192.19701102  .00050459  00000+0  47636-3 0  9991
2 46457  97.2225 245.4099 0010840  85.1297 275.1201 15.66815555323512
JILIN-1 GAOFEN 3F       
1 46458U 20065E   26192.20330640  .00043096  00000+0  46233-3 0  9990
2 46458  97.2180 242.6295 0012204  71.3524 288.9059 15.63600762323451
JILIN-1 GAOFEN 3G       
1 46459U 20065F   26192.18534498  .00085576  00000+0  54387-3 0  9993
2 46459  97.2234 249.8523 0004845 295.9876  64.0890 15.76211428323717
JILIN-1 GAOFEN 3H       
1 46460U 20065G   26192.15351613  .00064114  00000+0  49508-3 0  9992
2 46460  97.2186 245.9851 0005879 216.1652 143.9215 15.71719380323646
JILIN-1 GAOFEN 2D       
1 49256U 21086A   26192.20303117  .00002617  00000+0  15923-3 0  9998
2 49256  97.6499 314.9105 0034317  63.9174 296.5581 15.10847543264346
JILIN-1 GAOFEN 2F       
1 49338U 21097A   26192.19085308  .00001937  00000+0  12984-3 0  9996
2 49338  97.6719 318.3367 0019637 142.3992 217.8613 15.07928921259935
JILIN-1 GAOFEN 3D27     
1 52444U 22048B   26192.11883345  .00133548  00000+0  65062-3 0  9993
2 52444  97.5724 308.3430 0004829 253.9351 106.1385 15.81997323233254
JILIN-1 GAOFEN 3D28     
1 52445U 22048C   26191.99876115  .00176488  00000+0  68750-3 0  9993
2 52445  97.5662 308.4829 0004524 249.5291 110.5494 15.86622690233296
JILIN-1 GAOFEN 3D29     
1 52446U 22048D   26192.10428029  .00133098  00000+0  64284-3 0  9993
2 52446  97.5715 308.6915 0004070 233.8379 126.2513 15.82190626233272
JILIN-1 GAOFEN 3D31     
1 52448U 22048F   26192.15895547  .00248480  25211-4  75819-3 0  9997
2 52448  97.5684 310.0359 0005075 242.8189 117.2568 15.91946924233385
JILIN-1 GAOFEN 03D09    
1 53445U 22098B   26192.20492622  .00058295  00000+0  48836-3 0  9999
2 53445  97.5612 323.7376 0003160 244.9954 115.0979 15.69794687218398
JILIN-1 GAOFEN 03D43    
1 53448U 22098E   26192.19030209  .00064216  00000+0  46128-3 0  9991
2 53448  97.5599 324.8595 0003492 239.2966 120.7954 15.73446890218467
JILIN-1 GAOFEN 03D08    
1 54251U 22155A   26192.19300801  .00046317  00000+0  43220-3 0  9998
2 54251  97.6220 339.5613 0004032 242.2461 117.8390 15.67190218203571
