{"fetched_at":"2026-07-11T09:24:25.354Z","source":"https://celestrak.org/NORAD/elements/gp.php?NAME=JILIN&FORMAT=JSON","constellation":"jilin-1-gaofen","records":[{"OBJECT_NAME":"JILIN-1 GAOFEN 3A","OBJECT_ID":"2019-032C","EPOCH":"2026-07-11T03:09:58.001184","CLASSIFICATION_TYPE":"U","MEAN_MOTION":15.33139854,"ECCENTRICITY":0.000468,"INCLINATION":44.9736,"RA_OF_ASC_NODE":225.1029,"ARG_OF_PERICENTER":74.5672,"MEAN_ANOMALY":285.5729,"EPHEMERIS_TYPE":0,"NORAD_CAT_ID":44312,"ELEMENT_SET_NO":999,"REV_AT_EPOCH":39151,"BSTAR":0.00017826,"MEAN_MOTION_DOT":0.0000551,"MEAN_MOTION_DDOT":0},{"OBJECT_NAME":"JILIN-1 GAOFEN 2A","OBJECT_ID":"2019-075A","EPOCH":"2026-07-11T04:22:44.988096","CLASSIFICATION_TYPE":"U","MEAN_MOTION":15.39945435,"ECCENTRICITY":0.0005571,"INCLINATION":97.4964,"RA_OF_ASC_NODE":276.5427,"ARG_OF_PERICENTER":10.3816,"MEAN_ANOMALY":349.7543,"EPHEMERIS_TYPE":0,"NORAD_CAT_ID":44777,"ELEMENT_SET_NO":999,"REV_AT_EPOCH":36857,"BSTAR":0.00022467,"MEAN_MOTION_DOT":0.00008866,"MEAN_MOTION_DDOT":0},{"OBJECT_NAME":"JILIN-1 GAOFEN 2B","OBJECT_ID":"2019-086A","EPOCH":"2026-07-11T03:53:53.711808","CLASSIFICATION_TYPE":"U","MEAN_MOTION":15.20970931,"ECCENTRICITY":0.0012908,"INCLINATION":97.4877,"RA_OF_ASC_NODE":264.0055,"ARG_OF_PERICENTER":230.8693,"MEAN_ANOMALY":129.1395,"EPHEMERIS_TYPE":0,"NORAD_CAT_ID":44836,"ELEMENT_SET_NO":999,"REV_AT_EPOCH":36413,"BSTAR":0.00016086,"MEAN_MOTION_DOT":0.000035,"MEAN_MOTION_DDOT":0},{"OBJECT_NAME":"JILIN-1 GAOFEN 3E","OBJECT_ID":"2020-065D","EPOCH":"2026-07-11T04:43:41.752128","CLASSIFICATION_TYPE":"U","MEAN_MOTION":15.66815555,"ECCENTRICITY":0.001084,"INCLINATION":97.2225,"RA_OF_ASC_NODE":245.4099,"ARG_OF_PERICENTER":85.1297,"MEAN_ANOMALY":275.1201,"EPHEMERIS_TYPE":0,"NORAD_CAT_ID":46457,"ELEMENT_SET_NO":999,"REV_AT_EPOCH":32351,"BSTAR":0.00047636,"MEAN_MOTION_DOT":0.00050459,"MEAN_MOTION_DDOT":0},{"OBJECT_NAME":"JILIN-1 GAOFEN 3F","OBJECT_ID":"2020-065E","EPOCH":"2026-07-11T04:52:45.672960","CLASSIFICATION_TYPE":"U","MEAN_MOTION":15.63600762,"ECCENTRICITY":0.0012204,"INCLINATION":97.218,"RA_OF_ASC_NODE":242.6295,"ARG_OF_PERICENTER":71.3524,"MEAN_ANOMALY":288.9059,"EPHEMERIS_TYPE":0,"NORAD_CAT_ID":46458,"ELEMENT_SET_NO":999,"REV_AT_EPOCH":32345,"BSTAR":0.00046233,"MEAN_MOTION_DOT":0.00043096,"MEAN_MOTION_DDOT":0},{"OBJECT_NAME":"JILIN-1 GAOFEN 3G","OBJECT_ID":"2020-065F","EPOCH":"2026-07-11T04:26:53.806272","CLASSIFICATION_TYPE":"U","MEAN_MOTION":15.76211428,"ECCENTRICITY":0.0004845,"INCLINATION":97.2234,"RA_OF_ASC_NODE":249.8523,"ARG_OF_PERICENTER":295.9876,"MEAN_ANOMALY":64.089,"EPHEMERIS_TYPE":0,"NORAD_CAT_ID":46459,"ELEMENT_SET_NO":999,"REV_AT_EPOCH":32371,"BSTAR":0.00054387,"MEAN_MOTION_DOT":0.00085576,"MEAN_MOTION_DDOT":0},{"OBJECT_NAME":"JILIN-1 GAOFEN 3H","OBJECT_ID":"2020-065G","EPOCH":"2026-07-11T03:41:03.793632","CLASSIFICATION_TYPE":"U","MEAN_MOTION":15.7171938,"ECCENTRICITY":0.0005879,"INCLINATION":97.2186,"RA_OF_ASC_NODE":245.9851,"ARG_OF_PERICENTER":216.1652,"MEAN_ANOMALY":143.9215,"EPHEMERIS_TYPE":0,"NORAD_CAT_ID":46460,"ELEMENT_SET_NO":999,"REV_AT_EPOCH":32364,"BSTAR":0.00049508,"MEAN_MOTION_DOT":0.00064114,"MEAN_MOTION_DDOT":0},{"OBJECT_NAME":"JILIN-1 GAOFEN 2D","OBJECT_ID":"2021-086A","EPOCH":"2026-07-11T04:52:21.893088","CLASSIFICATION_TYPE":"U","MEAN_MOTION":15.10847543,"ECCENTRICITY":0.0034317,"INCLINATION":97.6499,"RA_OF_ASC_NODE":314.9105,"ARG_OF_PERICENTER":63.9174,"MEAN_ANOMALY":296.5581,"EPHEMERIS_TYPE":0,"NORAD_CAT_ID":49256,"ELEMENT_SET_NO":999,"REV_AT_EPOCH":26434,"BSTAR":0.00015923,"MEAN_MOTION_DOT":0.00002617,"MEAN_MOTION_DDOT":0},{"OBJECT_NAME":"JILIN-1 GAOFEN 2F","OBJECT_ID":"2021-097A","EPOCH":"2026-07-11T04:34:49.706112","CLASSIFICATION_TYPE":"U","MEAN_MOTION":15.07928921,"ECCENTRICITY":0.0019637,"INCLINATION":97.6719,"RA_OF_ASC_NODE":318.3367,"ARG_OF_PERICENTER":142.3992,"MEAN_ANOMALY":217.8613,"EPHEMERIS_TYPE":0,"NORAD_CAT_ID":49338,"ELEMENT_SET_NO":999,"REV_AT_EPOCH":25993,"BSTAR":0.00012984,"MEAN_MOTION_DOT":0.00001937,"MEAN_MOTION_DDOT":0},{"OBJECT_NAME":"JILIN-1 GAOFEN 3D27","OBJECT_ID":"2022-048B","EPOCH":"2026-07-11T02:51:07.210080","CLASSIFICATION_TYPE":"U","MEAN_MOTION":15.81997323,"ECCENTRICITY":0.0004829,"INCLINATION":97.5724,"RA_OF_ASC_NODE":308.343,"ARG_OF_PERICENTER":253.9351,"MEAN_ANOMALY":106.1385,"EPHEMERIS_TYPE":0,"NORAD_CAT_ID":52444,"ELEMENT_SET_NO":999,"REV_AT_EPOCH":23325,"BSTAR":0.00065062,"MEAN_MOTION_DOT":0.00133548,"MEAN_MOTION_DDOT":0},{"OBJECT_NAME":"JILIN-1 GAOFEN 3D28","OBJECT_ID":"2022-048C","EPOCH":"2026-07-10T23:58:12.963360","CLASSIFICATION_TYPE":"U","MEAN_MOTION":15.8662269,"ECCENTRICITY":0.0004524,"INCLINATION":97.5662,"RA_OF_ASC_NODE":308.4829,"ARG_OF_PERICENTER":249.5291,"MEAN_ANOMALY":110.5494,"EPHEMERIS_TYPE":0,"NORAD_CAT_ID":52445,"ELEMENT_SET_NO":999,"REV_AT_EPOCH":23329,"BSTAR":0.0006875,"MEAN_MOTION_DOT":0.00176488,"MEAN_MOTION_DDOT":0},{"OBJECT_NAME":"JILIN-1 GAOFEN 3D29","OBJECT_ID":"2022-048D","EPOCH":"2026-07-11T02:30:09.817056","CLASSIFICATION_TYPE":"U","MEAN_MOTION":15.82190626,"ECCENTRICITY":0.000407,"INCLINATION":97.5715,"RA_OF_ASC_NODE":308.6915,"ARG_OF_PERICENTER":233.8379,"MEAN_ANOMALY":126.2513,"EPHEMERIS_TYPE":0,"NORAD_CAT_ID":52446,"ELEMENT_SET_NO":999,"REV_AT_EPOCH":23327,"BSTAR":0.00064284,"MEAN_MOTION_DOT":0.00133098,"MEAN_MOTION_DDOT":0},{"OBJECT_NAME":"JILIN-1 GAOFEN 3D31","OBJECT_ID":"2022-048F","EPOCH":"2026-07-11T03:48:53.752608","CLASSIFICATION_TYPE":"U","MEAN_MOTION":15.91946924,"ECCENTRICITY":0.0005075,"INCLINATION":97.5684,"RA_OF_ASC_NODE":310.0359,"ARG_OF_PERICENTER":242.8189,"MEAN_ANOMALY":117.2568,"EPHEMERIS_TYPE":0,"NORAD_CAT_ID":52448,"ELEMENT_SET_NO":999,"REV_AT_EPOCH":23338,"BSTAR":0.00075819,"MEAN_MOTION_DOT":0.0024848,"MEAN_MOTION_DDOT":0.000025211},{"OBJECT_NAME":"JILIN-1 GAOFEN 03D09","OBJECT_ID":"2022-098B","EPOCH":"2026-07-11T04:55:05.625408","CLASSIFICATION_TYPE":"U","MEAN_MOTION":15.69794687,"ECCENTRICITY":0.000316,"INCLINATION":97.5612,"RA_OF_ASC_NODE":323.7376,"ARG_OF_PERICENTER":244.9954,"MEAN_ANOMALY":115.0979,"EPHEMERIS_TYPE":0,"NORAD_CAT_ID":53445,"ELEMENT_SET_NO":999,"REV_AT_EPOCH":21839,"BSTAR":0.00048836,"MEAN_MOTION_DOT":0.00058295,"MEAN_MOTION_DDOT":0},{"OBJECT_NAME":"JILIN-1 GAOFEN 03D43","OBJECT_ID":"2022-098E","EPOCH":"2026-07-11T04:34:02.100576","CLASSIFICATION_TYPE":"U","MEAN_MOTION":15.7344689,"ECCENTRICITY":0.0003492,"INCLINATION":97.5599,"RA_OF_ASC_NODE":324.8595,"ARG_OF_PERICENTER":239.2966,"MEAN_ANOMALY":120.7954,"EPHEMERIS_TYPE":0,"NORAD_CAT_ID":53448,"ELEMENT_SET_NO":999,"REV_AT_EPOCH":21846,"BSTAR":0.00046128,"MEAN_MOTION_DOT":0.00064216,"MEAN_MOTION_DDOT":0},{"OBJECT_NAME":"JILIN-1 GAOFEN 03D08","OBJECT_ID":"2022-155A","EPOCH":"2026-07-11T04:37:55.892064","CLASSIFICATION_TYPE":"U","MEAN_MOTION":15.67190218,"ECCENTRICITY":0.0004032,"INCLINATION":97.622,"RA_OF_ASC_NODE":339.5613,"ARG_OF_PERICENTER":242.2461,"MEAN_ANOMALY":117.839,"EPHEMERIS_TYPE":0,"NORAD_CAT_ID":54251,"ELEMENT_SET_NO":999,"REV_AT_EPOCH":20357,"BSTAR":0.0004322,"MEAN_MOTION_DOT":0.00046317,"MEAN_MOTION_DDOT":0}]}
